start=new Date('2023-05-03T00:00:00.000Z').valueOf();
sats=[{"PERIAPSIS":"561.701","EPOCH":"2023-05-02T18:22:32.459808","APOAPSIS":"564.295","OBJECT_TYPE":"PAYLOAD","ECCENTRICITY":"0.00018690","SEMIMAJOR_AXIS":"6941.133","CENTER_NAME":"EARTH","TIME_SYSTEM":"UTC","TLE_LINE1":"1 53213U 22084AA  23122.76565347  .00003237  00000-0  25649-3 0  9997","FILE":"3899277","INCLINATION":"97.6538","REV_AT_EPOCH":"4351","ELEMENT_SET_NO":"999","OBJECT_NAME":"STARLINK-4414","MEAN_MOTION_DDOT":"0.0000000000000","MEAN_MOTION":"15.01264526","OBJECT_ID":"2022-084AA","MEAN_MOTION_DOT":"0.00003237","RCS_SIZE":"LARGE","SITE":"AFWTR","TLE_LINE2":"2 53213  97.6538 184.4870 0001869 107.6062 252.5367 15.01264526 43517","EPHEMERIS_TYPE":"0","ARG_OF_PERICENTER":"107.6062","GP_ID":"231124272","COUNTRY_CODE":"US","MEAN_ANOMALY":"252.5367","DECAY_DATE":null,"RA_OF_ASC_NODE":"184.4870","LAUNCH_DATE":"2022-07-22","PERIOD":"95.919","REF_FRAME":"TEME","BSTAR":"0.00025649000000","MEAN_ELEMENT_THEORY":"SGP4","NORAD_CAT_ID":"53213","CLASSIFICATION_TYPE":"U"},{"MEAN_MOTION":"15.01266415","OBJECT_ID":"2022-084AB","MEAN_MOTION_DDOT":"0.0000000000000","OBJECT_NAME":"STARLINK-4353","RCS_SIZE":"LARGE","MEAN_MOTION_DOT":"0.00003374","ARG_OF_PERICENTER":"102.1487","GP_ID":"231124521","TLE_LINE2":"2 53214  97.6548 184.5038 0001870 102.1487 257.9947 15.01266415 42992","EPHEMERIS_TYPE":"0","SITE":"AFWTR","CLASSIFICATION_TYPE":"U","NORAD_CAT_ID":"53214","REF_FRAME":"TEME","MEAN_ELEMENT_THEORY":"SGP4","BSTAR":"0.00026712000000","MEAN_ANOMALY":"257.9947","DECAY_DATE":null,"LAUNCH_DATE":"2022-07-22","RA_OF_ASC_NODE":"184.5038","PERIOD":"95.919","COUNTRY_CODE":"US","APOAPSIS":"564.290","EPOCH":"2023-05-02T18:33:12.353760","PERIAPSIS":"561.694","ECCENTRICITY":"0.00018700","OBJECT_TYPE":"PAYLOAD","TIME_SYSTEM":"UTC","SEMIMAJOR_AXIS":"6941.127","CENTER_NAME":"EARTH","REV_AT_EPOCH":"4299","INCLINATION":"97.6548","ELEMENT_SET_NO":"999","FILE":"3899277","TLE_LINE1":"1 53214U 22084AB  23122.77305965  .00003374  00000-0  26712-3 0  9991"},{"ECCENTRICITY":"0.00016080","OBJECT_TYPE":"PAYLOAD","PERIAPSIS":"561.887","APOAPSIS":"564.120","EPOCH":"2023-05-02T18:19:52.319136","TLE_LINE1":"1 53215U 22084AC  23122.76379999  .00002034  00000-0  16287-3 0  9997","REV_AT_EPOCH":"4351","INCLINATION":"97.6541","ELEMENT_SET_NO":"999","FILE":"3899277","TIME_SYSTEM":"UTC","SEMIMAJOR_AXIS":"6941.139","CENTER_NAME":"EARTH","RCS_SIZE":"LARGE","MEAN_MOTION_DOT":"0.00002034","MEAN_MOTION_DDOT":"0.0000000000000","OBJECT_NAME":"STARLINK-4335","MEAN_MOTION":"15.01262691","OBJECT_ID":"2022-084AC","MEAN_ANOMALY":"260.1295","DECAY_DATE":null,"LAUNCH_DATE":"2022-07-22","RA_OF_ASC_NODE":"184.4838","PERIOD":"95.919","COUNTRY_CODE":"US","NORAD_CAT_ID":"53215","CLASSIFICATION_TYPE":"U","REF_FRAME":"TEME","BSTAR":"0.00016287000000","MEAN_ELEMENT_THEORY":"SGP4","SITE":"AFWTR","TLE_LINE2":"2 53215  97.6541 184.4838 0001608 100.0111 260.1295 15.01262691 43516","EPHEMERIS_TYPE":"0","GP_ID":"231124772","ARG_OF_PERICENTER":"100.0111"},{"MEAN_ELEMENT_THEORY":"SGP4","BSTAR":"0.00023071000000","REF_FRAME":"TEME","NORAD_CAT_ID":"53216","CLASSIFICATION_TYPE":"U","COUNTRY_CODE":"US","RA_OF_ASC_NODE":"184.4942","DECAY_DATE":null,"LAUNCH_DATE":"2022-07-22","PERIOD":"95.919","MEAN_ANOMALY":"263.8060","ARG_OF_PERICENTER":"96.3423","GP_ID":"231125516","SITE":"AFWTR","TLE_LINE2":"2 53216  97.6532 184.4942 0002268  96.3423 263.8060 15.01264735 42991","EPHEMERIS_TYPE":"0","MEAN_MOTION_DOT":"0.00002906","RCS_SIZE":"LARGE","OBJECT_ID":"2022-084AD","MEAN_MOTION":"15.01264735","OBJECT_NAME":"STARLINK-4376","MEAN_MOTION_DDOT":"0.0000000000000","FILE":"3899277","ELEMENT_SET_NO":"999","REV_AT_EPOCH":"4299","INCLINATION":"97.6532","TLE_LINE1":"1 53216U 22084AD  23122.76935874  .00002906  00000-0  23071-3 0  9995","CENTER_NAME":"EARTH","SEMIMAJOR_AXIS":"6941.132","TIME_SYSTEM":"UTC","OBJECT_TYPE":"PAYLOAD","ECCENTRICITY":"0.00022680","EPOCH":"2023-05-02T18:27:52.595136","APOAPSIS":"564.572","PERIAPSIS":"561.423"},{"TLE_LINE2":"2 53217  97.6541 184.4789 0001496 111.5815 248.5569 15.01260547 42999","EPHEMERIS_TYPE":"0","SITE":"AFWTR","GP_ID":"231123772","ARG_OF_PERICENTER":"111.5815","COUNTRY_CODE":"US","RA_OF_ASC_NODE":"184.4789","DECAY_DATE":null,"LAUNCH_DATE":"2022-07-22","PERIOD":"95.919","MEAN_ANOMALY":"248.5569","BSTAR":"0.00014837000000","MEAN_ELEMENT_THEORY":"SGP4","REF_FRAME":"TEME","CLASSIFICATION_TYPE":"U","NORAD_CAT_ID":"53217","OBJECT_NAME":"STARLINK-4379","MEAN_MOTION_DDOT":"0.0000000000000","OBJECT_ID":"2022-084AE","MEAN_MOTION":"15.01260547","RCS_SIZE":"LARGE","MEAN_MOTION_DOT":"0.00001847","CENTER_NAME":"EARTH","SEMIMAJOR_AXIS":"6941.145","TIME_SYSTEM":"UTC","TLE_LINE1":"1 53217U 22084AE  23122.76034312  .00001847  00000-0  14837-3 0  9996","FILE":"3899277","ELEMENT_SET_NO":"999","REV_AT_EPOCH":"4299","INCLINATION":"97.6541","PERIAPSIS":"561.972","EPOCH":"2023-05-02T18:14:53.645568","APOAPSIS":"564.049","OBJECT_TYPE":"PAYLOAD","ECCENTRICITY":"0.00014960"},{"FILE":"3899277","ELEMENT_SET_NO":"999","REV_AT_EPOCH":"4351","INCLINATION":"97.6536","TLE_LINE1":"1 53218U 22084AF  23122.76750357  .00002240  00000-0  17889-3 0  9999","CENTER_NAME":"EARTH","SEMIMAJOR_AXIS":"6941.139","TIME_SYSTEM":"UTC","OBJECT_TYPE":"PAYLOAD","ECCENTRICITY":"0.00018860","EPOCH":"2023-05-02T18:25:12.308448","APOAPSIS":"564.313","PERIAPSIS":"561.695","MEAN_ELEMENT_THEORY":"SGP4","BSTAR":"0.00017889000000","REF_FRAME":"TEME","NORAD_CAT_ID":"53218","CLASSIFICATION_TYPE":"U","COUNTRY_CODE":"US","LAUNCH_DATE":"2022-07-22","DECAY_DATE":null,"PERIOD":"95.919","RA_OF_ASC_NODE":"184.4904","MEAN_ANOMALY":"262.6005","ARG_OF_PERICENTER":"97.5433","GP_ID":"231124022","TLE_LINE2":"2 53218  97.6536 184.4904 0001886  97.5433 262.6005 15.01262549 43510","SITE":"AFWTR","EPHEMERIS_TYPE":"0","RCS_SIZE":"LARGE","MEAN_MOTION_DOT":"0.00002240","OBJECT_ID":"2022-084AF","MEAN_MOTION":"15.01262549","OBJECT_NAME":"STARLINK-4384","MEAN_MOTION_DDOT":"0.0000000000000"},{"RCS_SIZE":"LARGE","MEAN_MOTION_DOT":"0.00002002","MEAN_MOTION":"15.01260681","OBJECT_ID":"2022-084AG","OBJECT_NAME":"STARLINK-4373","MEAN_MOTION_DDOT":"0.0000000000000","REF_FRAME":"TEME","BSTAR":"0.00016042000000","MEAN_ELEMENT_THEORY":"SGP4","CLASSIFICATION_TYPE":"U","NORAD_CAT_ID":"53219","COUNTRY_CODE":"US","MEAN_ANOMALY":"231.6351","LAUNCH_DATE":"2022-07-22","DECAY_DATE":null,"PERIOD":"95.919","RA_OF_ASC_NODE":"184.4744","ARG_OF_PERICENTER":"128.4948","GP_ID":"231125273","SITE":"AFWTR","TLE_LINE2":"2 53219  97.6541 184.4744 0000832 128.4948 231.6351 15.01260681 42990","EPHEMERIS_TYPE":"0","OBJECT_TYPE":"PAYLOAD","ECCENTRICITY":"0.00008320","EPOCH":"2023-05-02T18:09:12.317184","APOAPSIS":"563.587","PERIAPSIS":"562.432","FILE":"3899277","REV_AT_EPOCH":"4299","INCLINATION":"97.6541","ELEMENT_SET_NO":"999","TLE_LINE1":"1 53219U 22084AG  23122.75639256  .00002002  00000-0  16042-3 0  9999","SEMIMAJOR_AXIS":"6941.145","CENTER_NAME":"EARTH","TIME_SYSTEM":"UTC"},{"EPOCH":"2023-05-02T18:17:12.493824","APOAPSIS":"564.290","PERIAPSIS":"561.707","OBJECT_TYPE":"PAYLOAD","ECCENTRICITY":"0.00018610","SEMIMAJOR_AXIS":"6941.133","CENTER_NAME":"EARTH","TIME_SYSTEM":"UTC","FILE":"3899277","INCLINATION":"97.6542","REV_AT_EPOCH":"4351","ELEMENT_SET_NO":"999","TLE_LINE1":"1 53220U 22084AH  23122.76195016  .00003028  00000-0  24018-3 0  9994","MEAN_MOTION":"15.01264408","OBJECT_ID":"2022-084AH","OBJECT_NAME":"STARLINK-4363","MEAN_MOTION_DDOT":"0.0000000000000","MEAN_MOTION_DOT":"0.00003028","RCS_SIZE":"LARGE","ARG_OF_PERICENTER":"109.5893","GP_ID":"231125016","TLE_LINE2":"2 53220  97.6542 184.4807 0001861 109.5893 250.5532 15.01264408 43516","EPHEMERIS_TYPE":"0","SITE":"AFWTR","REF_FRAME":"TEME","BSTAR":"0.00024018000000","MEAN_ELEMENT_THEORY":"SGP4","NORAD_CAT_ID":"53220","CLASSIFICATION_TYPE":"U","COUNTRY_CODE":"US","MEAN_ANOMALY":"250.5532","PERIOD":"95.919","DECAY_DATE":null,"LAUNCH_DATE":"2022-07-22","RA_OF_ASC_NODE":"184.4807"},{"EPOCH":"2023-05-02T18:06:32.402880","APOAPSIS":"563.753","PERIAPSIS":"562.262","OBJECT_TYPE":"PAYLOAD","ECCENTRICITY":"0.00010740","CENTER_NAME":"EARTH","SEMIMAJOR_AXIS":"6941.142","TIME_SYSTEM":"UTC","FILE":"3899277","ELEMENT_SET_NO":"999","INCLINATION":"97.6542","REV_AT_EPOCH":"4299","TLE_LINE1":"1 53221U 22084AJ  23122.75454170  .00001303  00000-0  10600-3 0  9999","OBJECT_ID":"2022-084AJ","MEAN_MOTION":"15.01261440","OBJECT_NAME":"STARLINK-4377","MEAN_MOTION_DDOT":"0.0000000000000","MEAN_MOTION_DOT":"0.00001303","RCS_SIZE":"LARGE","ARG_OF_PERICENTER":"111.5364","GP_ID":"231124273","TLE_LINE2":"2 53221  97.6542 184.4718 0001074 111.5364 248.5974 15.01261440 42991","SITE":"AFWTR","EPHEMERIS_TYPE":"0","MEAN_ELEMENT_THEORY":"SGP4","BSTAR":"0.00010600000000","REF_FRAME":"TEME","NORAD_CAT_ID":"53221","CLASSIFICATION_TYPE":"U","COUNTRY_CODE":"US","LAUNCH_DATE":"2022-07-22","DECAY_DATE":null,"PERIOD":"95.919","RA_OF_ASC_NODE":"184.4718","MEAN_ANOMALY":"248.5974"},{"CLASSIFICATION_TYPE":"U","NORAD_CAT_ID":"53222","REF_FRAME":"TEME","MEAN_ELEMENT_THEORY":"SGP4","BSTAR":"0.00018835000000","MEAN_ANOMALY":"250.5742","LAUNCH_DATE":"2022-07-22","DECAY_DATE":null,"PERIOD":"95.919","RA_OF_ASC_NODE":"184.4790","COUNTRY_CODE":"US","ARG_OF_PERICENTER":"109.5608","GP_ID":"231124522","TLE_LINE2":"2 53222  97.6543 184.4790 0001164 109.5608 250.5742 15.01262781 42996","SITE":"AFWTR","EPHEMERIS_TYPE":"0","MEAN_MOTION_DOT":"0.00002361","RCS_SIZE":"LARGE","MEAN_MOTION":"15.01262781","OBJECT_ID":"2022-084AK","MEAN_MOTION_DDOT":"0.0000000000000","OBJECT_NAME":"STARLINK-4381","REV_AT_EPOCH":"4299","INCLINATION":"97.6543","ELEMENT_SET_NO":"999","FILE":"3899277","TLE_LINE1":"1 53222U 22084AK  23122.76009755  .00002361  00000-0  18835-3 0  9999","TIME_SYSTEM":"UTC","SEMIMAJOR_AXIS":"6941.138","CENTER_NAME":"EARTH","ECCENTRICITY":"0.00011640","OBJECT_TYPE":"PAYLOAD","APOAPSIS":"563.811","EPOCH":"2023-05-02T18:14:32.428320","PERIAPSIS":"562.195"}];
